0 COSMOS 931 DEB
1 12815U 77068E   13281.51447154  .00000113  00000-0  00000+0 0  3786
2 12815 069.0076 165.3888 4922048 069.1127 335.5631 02.01185288 58544
0 COSMOS 931 DEB
1 12815U 77068E   13281.66846663  .00000111  00000-0  00000+0 0  3799
2 12815 069.0209 165.3916 4903979 069.1408 087.3654 02.01171589 58544
0 COSMOS 931 DEB
1 12815U 77068E   13282.65419652  .00000099  00000-0  00000+0 0  3800
2 12815 069.0207 165.3497 4904466 069.1144 081.2842 02.01170547 58562
0 COSMOS 931 DEB
1 12815U 77068E   13290.08202956  .00000105  00000-0  00000+0 0  3812
2 12815 069.0201 165.0376 4907283 068.9132 060.8023 02.01163584 58717
0 COSMOS 931 DEB
1 12815U 77068E   13290.46191735 -.00000499  00000-0  10000-3 0  3830
2 12815 069.0219 165.0167 4908491 068.9033 335.8645 02.01173091 58726
0 COSMOS 931 DEB
1 12815U 77068E   13291.00138850  .00000111  00000-0  00000+0 0  3824
2 12815 069.0190 164.9982 4908561 068.8878 006.6108 02.01162840 58739
0 COSMOS 931 DEB
1 12815U 77068E   13293.06140326  .00000109  00000-0  00000+0 0  3831
2 12815 069.0186 164.9115 4909485 068.8327 058.5069 02.01161218 58771
0 COSMOS 931 DEB
1 12815U 77068E   13293.93338891  .00000103  00000-0  00000+0 0  3848
2 12815 069.0184 164.8747 4909839 068.8102 330.0049 02.01160660 58780
